[{"OBJECT_NAME":"Z-SAT","OBJECT_ID":"2021-102E","EPOCH":"2026-03-09T23:34:39.244224","MEAN_MOTION":15.17426546,"ECCENTRICITY":0.00156122,"INCLINATION":97.3462,"RA_OF_ASC_NODE":107.3084,"ARG_OF_PERICENTER":229.8431,"MEAN_ANOMALY":130.1437,"EPHEMERIS_TYPE":0,"CLASSIFICATION_TYPE":"U","NORAD_CAT_ID":49399,"ELEMENT_SET_NO":999,"REV_AT_EPOCH":23839,"BSTAR":0.00028947153,"MEAN_MOTION_DOT":5.742e-5,"MEAN_MOTION_DDOT":0},{"OBJECT_NAME":"FENGYUN 1C DEB","OBJECT_ID":"1999-025AMH","EPOCH":"2026-03-09T12:42:15.737184","MEAN_MOTION":15.14321833,"ECCENTRICITY":0.0006603,"INCLINATION":99.0205,"RA_OF_ASC_NODE":1.3766,"ARG_OF_PERICENTER":145.7382,"MEAN_ANOMALY":270.0225,"EPHEMERIS_TYPE":0,"CLASSIFICATION_TYPE":"U","NORAD_CAT_ID":30602,"ELEMENT_SET_NO":999,"REV_AT_EPOCH":99107,"BSTAR":0.010046779,"MEAN_MOTION_DOT":0.0018881,"MEAN_MOTION_DDOT":0}]
